IRIDIUM 26              
1 24903U 97043A   25184.47864079  .00000302  00000+0  95036-4 0  9997
2 24903  86.3957 103.7801 0002356  80.9459 279.2005 14.37155983459086
DUMMY MASS 1            
1 24925U 97048A   25184.29870505  .00000339  00000+0  34673-4 0  9997
2 24925  86.3363 127.8822 0009089  89.6071 270.6195 14.86996406507522
IRIDIUM 29              
1 24944U 97051A   25184.29977873  .00000343  00000+0  11043-3 0  9998
2 24944  86.3978 137.1418 0002124  89.7132 270.4309 14.36478545455589
IRIDIUM 28              
1 24948U 97051E   25184.61135293  .00000296  00000+0  92650-4 0  9991
2 24948  86.3982 134.5184 0002609  77.3827 282.7662 14.37395144456203
IRIDIUM 36              
1 24967U 97056C   25184.50253492  .00000320  00000+0  10012-3 0  9996
2 24967  86.3993 166.1481 0002180  82.0102 278.1343 14.37619890454569
